NORAD_CAT_ID,OBJECT_NAME,OBJECT_TYPE,EPOCH,MEAN_MOTION,ECCENTRICITY,INCLINATION,RA_OF_ASC_NODE,ARG_OF_PERICENTER,MEAN_ANOMALY,BSTAR,MEAN_MOTION_DOT,MEAN_MOTION_DDOT,TLE_LINE0,TLE_LINE1,TLE_LINE2,SEMIMAJOR_AXIS,PERIOD,APOGEE,PERIGEE,DECAYED
53272.0,STARLINK-4122,PAYLOAD,2022-09-30 06:00:02,15.56136345,0.0001776999999999,53.2175,68.5718,29.2536,49.0305,-0.016355,-0.01058888,0.0,0 STARLINK-4122,1 53272U 22086AG  22273.25002315 -.01058888  00000-0 -16355-1 0  9992,2 53272  53.2175  68.5718 0001777  29.2536  49.0305 15.56136345 11280,6776.988,92.537,400.0580000000001,397.649,0.0
53272.0,STARLINK-4122,PAYLOAD,2022-09-30 14:00:01,15.55381168,0.0001672,53.2171,66.9643,42.1285,104.0509,-0.016912,-0.0106404,0.0,0 STARLINK-4122,1 53272U 22086AG  22273.58334491 -.01064040  00000-0 -16912-1 0  9997,2 53272  53.2171  66.9643 0001672  42.1285 104.0509 15.55381168  1308,6779.182,92.582,402.18,399.913,0.0
53272.0,STARLINK-4122,PAYLOAD,2022-09-30 22:00:00,15.5460584,0.0001488,53.2169,65.3541,48.5739,164.6659,-0.01701,-0.01041991,0.0,0 STARLINK-4122,1 53272U 22086AG  22273.91667824 -.01041991  00000-0 -17010-1 0  9993,2 53272  53.2169  65.3541 0001488  48.5739 164.6659 15.54605840  1307,6781.436,92.628,404.31,402.292,0.0
53272.0,STARLINK-4122,PAYLOAD,2022-10-01 06:00:00,15.53859455,0.0001325,53.2173,63.7435,48.6573,230.7175,-0.017812,-0.01059752,0.0,0 STARLINK-4122,1 53272U 22086AG  22274.25001157 -.01059752  00000-0 -17812-1 0  9996,2 53272  53.2173  63.7435 0001325  48.6573 230.7175 15.53859455 11438,6783.607,92.672,406.371,404.573,0.0
53272.0,STARLINK-4122,PAYLOAD,2022-10-01 14:00:01,15.53095855,0.0001379,53.217,62.1387,48.8771,295.7264,-0.01823,-0.01055195,0.0,0 STARLINK-4122,1 53272U 22086AG  22274.58334491 -.01055195  00000-0 -18230-1 0  9994,2 53272  53.2170  62.1387 0001379  48.8771 295.7264 15.53095855  1306,6785.83,92.718,408.631,406.76,0.0
53272.0,STARLINK-4122,PAYLOAD,2022-10-01 22:00:00,15.52350657,0.0001591,53.2165,60.5353,36.7823,12.1283,-0.0190949999999999,-0.01073884,0.0,0 STARLINK-4122,1 53272U 22086AG  22274.91667824 -.01073884  00000-0 -19095-1 0  9995,2 53272  53.2165  60.5353 0001591  36.7823  12.1283 15.52350657  1300,6788.002,92.763,410.947,408.787,0.0
53272.0,STARLINK-4122,PAYLOAD,2022-10-02 06:00:00,15.51578862,0.0001629,53.2172,58.9314,36.889,75.4298,-0.019291,-0.01056733,0.0,0 STARLINK-4122,1 53272U 22086AG  22275.25001157 -.01056733  00000-0 -19291-1 0  9996,2 53272  53.2172  58.9314 0001629  36.8890  75.4298 15.51578862 11592,6790.253000000002,92.809,413.224,411.012,0.0
53272.0,STARLINK-4122,PAYLOAD,2022-10-02 14:00:01,15.50712356,0.0001419,53.2169,57.3344,37.9752,136.8542,-0.014705,-0.00790084,0.0,0 STARLINK-4122,1 53272U 22086AG  22275.58334491 -.00790084  00000-0 -14705-1 0  9990,2 53272  53.2169  57.3344 0001419  37.9752 136.8542 15.50712356  1309,6792.781999999997,92.861,415.611,413.6830000000001,0.0
53272.0,STARLINK-4122,PAYLOAD,2022-10-02 22:00:00,15.50040248,0.0001989,53.2165,55.7399,26.7048,209.6958,-0.0042699,-0.00236929,0.0,0 STARLINK-4122,1 53272U 22086AG  22275.91667824 -.00236929  00000-0 -42699-2 0  9993,2 53272  53.2165  55.7399 0001989  26.7048 209.6958 15.50040248 11690,6794.745,92.901,417.962,415.259,0.0
53272.0,STARLINK-4122,PAYLOAD,2022-10-03 06:00:00,15.49882457,0.0001749,53.2172,54.143,36.2219,261.1748,9.3129e-05,4.837e-05,0.0,0 STARLINK-4122,1 53272U 22086AG  22276.25001157  .00004837  00000-0  93129-4 0  9997,2 53272  53.2172  54.1430 0001749  36.2219 261.1748 15.49882457 11747,6795.206999999999,92.91,418.26,415.883,0.0
53272.0,STARLINK-4122,PAYLOAD,2022-10-03 14:00:01,15.49907478,0.0001675,53.2099,52.6242,19.1113,338.9627,0.00018216,9.908e-05,0.0,0 STARLINK-4122,1 53272U 22086AG  22276.58334491  .00009908  00000-0  18216-3 0  9990,2 53272  53.2099  52.6242 0001675  19.1113 338.9627 15.49907478  1301,6795.1330000000025,92.909,418.137,415.86,0.0
53272.0,STARLINK-4122,PAYLOAD,2022-10-03 22:00:00,15.49999441,0.000206,53.2123,50.9958,19.8504,39.176,-0.0028421999999999,-0.00159185,0.0,0 STARLINK-4122,1 53272U 22086AG  22276.91667824 -.00159185  00000-0 -28422-2 0  9990,2 53272  53.2123  50.9958 0002060  19.8504  39.1760 15.49999441  1303,6794.865,92.903,418.129,415.33,0.0
53272.0,STARLINK-4122,PAYLOAD,2022-10-04 06:00:00,15.49967607,0.0001928,53.215,49.3732,26.9755,93.0696,-0.020984,-0.0108241,0.0,0 STARLINK-4122,1 53272U 22086AG  22277.25001157 -.01082410  00000-0 -20984-1 0  9990,2 53272  53.2150  49.3732 0001928  26.9755  93.0696 15.49967607 11907,6794.958000000001,92.905,418.133,415.513,0.0
53272.0,STARLINK-4122,PAYLOAD,2022-10-04 14:00:01,15.49162128,0.0001727,53.217,47.7638,43.459,137.1463,-0.020204,-0.0101877999999999,0.0,0 STARLINK-4122,1 53272U 22086AG  22277.58334491 -.01018780  00000-0 -20204-1 0  9990,2 53272  53.2170  47.7638 0001727  43.4590 137.1463 15.49162128  1304,6797.313,92.953,420.352,418.004,0.0
53272.0,STARLINK-4122,PAYLOAD,2022-10-04 22:00:00,15.48384395,0.0001436,53.216,46.1693,40.9074,199.3248,-0.020229,-0.00994576,0.0,0 STARLINK-4122,1 53272U 22086AG  22277.91667824 -.00994576  00000-0 -20229-1 0  9998,2 53272  53.2160  46.1693 0001436  40.9074 199.3248 15.48384395  1305,6799.589,93.0,422.43,420.477,0.0
53272.0,STARLINK-4122,PAYLOAD,2022-10-05 14:00:01,15.46890643,0.0001491,53.2168,42.9866,37.9803,318.8005,-0.022082,-0.01027169,0.0,0 STARLINK-4122,1 53272U 22086AG  22278.58335648 -.01027169  00000-0 -22082-1 0  9993,2 53272  53.2168  42.9866 0001491  37.9803 318.8005 15.46890643 12112,6803.965,93.09,426.845,424.816,0.0
53272.0,STARLINK-4122,PAYLOAD,2022-10-05 22:00:00,15.46153338,0.0001629999999999,53.2171,41.3961,35.2483,18.3386,-0.0233939999999999,-0.01057634,0.0,0 STARLINK-4122,1 53272U 22086AG  22278.91667824 -.01057634  00000-0 -23394-1 0  9991,2 53272  53.2171  41.3961 0001630  35.2483  18.3386 15.46153338  1301,6806.128000000002,93.134,429.103,426.884,0.0
53272.0,STARLINK-4122,PAYLOAD,2022-10-06 06:00:00,15.45393191,0.0001595,53.2172,39.807,41.7948,67.7608,-0.024024,-0.01057894,0.0,0 STARLINK-4122,1 53272U 22086AG  22279.25001157 -.01057894  00000-0 -24024-1 0  9999,2 53272  53.2172  39.8070 0001595  41.7948  67.7608 15.45393191 12212,6808.36,93.18,431.311,429.139,0.0
53272.0,STARLINK-4122,PAYLOAD,2022-10-06 14:00:01,15.44634891,0.00015,53.2171,38.2233,22.1278,142.4806,-0.024693,-0.01059193,0.0,0 STARLINK-4122,1 53272U 22086AG  22279.58334491 -.01059193  00000-0 -24693-1 0  9991,2 53272  53.2171  38.2233 0001500  22.1278 142.4806 15.44634891  1303,6810.5880000000025,93.226,433.475,431.431,0.0
53272.0,STARLINK-4122,PAYLOAD,2022-10-06 22:42:55,15.43806574,0.000149,53.2168,36.4978,40.514,343.9063,-0.025351,-0.01057229,0.0,0 STARLINK-4122,1 53272U 22086AG  22279.94646991 -.01057229  00000-0 -25351-1 0  9992,2 53272  53.2168  36.4978 0001490  40.5140 343.9063 15.43806574  1306,6813.024,93.276,435.904,433.874,0.0
53272.0,STARLINK-4122,PAYLOAD,2022-10-07 06:00:00,15.43113426,0.0001435,53.2172,35.0556,51.6125,220.3691,-0.025892,-0.01054843,0.0,0 STARLINK-4122,1 53272U 22086AG  22280.25001157 -.01054843  00000-0 -25892-1 0  9996,2 53272  53.2172  35.0556 0001435  51.6125 220.3691 15.43113426 12363,6815.064,93.318,437.907,435.951,0.0
53272.0,STARLINK-4122,PAYLOAD,2022-10-07 14:00:01,15.42341659,0.0001197,53.2166,33.4778,55.6967,268.6053,-0.026088,-0.01037116,0.0,0 STARLINK-4122,1 53272U 22086AG  22280.58334491 -.01037116  00000-0 -26088-1 0  9994,2 53272  53.2166  33.4778 0001197  55.6967 268.6053 15.42341659  1306,6817.337,93.365,440.018,438.386,0.0
53272.0,STARLINK-4122,PAYLOAD,2022-10-07 22:00:00,15.4157188,0.0001434,53.2165,31.8987,42.7443,332.9673,-0.02638,-0.01023307,0.0,0 STARLINK-4122,1 53272U 22086AG  22280.91667824 -.01023307  00000-0 -26380-1 0  9992,2 53272  53.2165  31.8987 0001434  42.7443 332.9673 15.41571880  1302,6819.607,93.411,442.45,440.494,0.0
53272.0,STARLINK-4122,PAYLOAD,2022-10-08 06:00:00,15.40817756,0.0001633,53.2168,30.3215,38.8652,27.3349,-0.027249,-0.01030034,0.0,0 STARLINK-4122,1 53272U 22086AG  22281.25001157 -.01030034  00000-0 -27249-1 0  9991,2 53272  53.2168  30.3215 0001633  38.8652  27.3349 15.40817756 12527,6821.831999999999,93.457,444.811,442.583,0.0
53272.0,STARLINK-4122,PAYLOAD,2022-10-08 14:00:01,15.40056411,0.0001557,53.2171,28.7477,53.8712,61.9082,-0.02788,-0.01041787,0.0,0 STARLINK-4122,1 53272U 22086AG  22281.58334491 -.01041787  00000-0 -27880-1 0  9995,2 53272  53.2171  28.7477 0001557  53.8712  61.9082 15.40056411  1306,6824.08,93.503,447.007,444.882,0.0
53272.0,STARLINK-4122,PAYLOAD,2022-10-08 22:00:00,15.39296672,0.000166,53.2163,27.1741,49.3957,115.0495,-0.028538,-0.01040046,0.0,0 STARLINK-4122,1 53272U 22086AG  22281.91667824 -.01040046  00000-0 -28538-1 0  9999,2 53272  53.2163  27.1741 0001660  49.3957 115.0495 15.39296672  1302,6826.325,93.549,449.323,447.057,0.0
53272.0,STARLINK-4122,PAYLOAD,2022-10-09 14:00:01,15.37775816,0.0001338,53.2171,24.0347,60.1723,198.8674,-0.029936,-0.01037903,0.0,0 STARLINK-4122,1 53272U 22086AG  22282.58334491 -.01037903  00000-0 -29936-1 0  9995,2 53272  53.2171  24.0347 0001338  60.1723 198.8674 15.37775816 12729,6830.825,93.642,453.604,451.776,0.0
53272.0,STARLINK-4122,PAYLOAD,2022-10-09 22:00:00,15.37039628,0.0001639,53.2173,22.4663,38.3989,266.5591,-0.031768,-0.01072334,0.0,0 STARLINK-4122,1 53272U 22086AG  22282.91667824 -.01072334  00000-0 -31768-1 0  9994,2 53272  53.2173  22.4663 0001639  38.3989 266.5591 15.37039628  1306,6833.005999999999,93.687,455.991,453.751,0.0
53272.0,STARLINK-4122,PAYLOAD,2022-10-10 06:00:00,15.36276679,0.0001579,53.2175,20.8995,38.5369,311.438,-0.032351,-0.01065844,0.0,0 STARLINK-4122,1 53272U 22086AG  22283.25001157 -.01065844  00000-0 -32351-1 0  9990,2 53272  53.2175  20.8995 0001579  38.5369 311.4380 15.36276679 12839,6835.268,93.733,458.212,456.054,0.0
